$$SOE
2460721.500000000, A.D. 2025-Feb-15 00:00:00.0000, -1.471594318756854E+08, -3.755003955407221E+08, -4.446508190918297E+06,
2460728.500000000, A.D. 2025-Feb-22 00:00:00.0000, -1.358996875965357E+08, -3.787232968000911E+08, -4.648038630652130E+06,
2460735.500000000, A.D. 2025-Mar-01 00:00:00.0000, -1.245387046689927E+08, -3.816641091969199E+08, -4.846105922988802E+06,
2460742.500000000, A.D. 2025-Mar-08 00:00:00.0000, -1.130843208753064E+08, -3.843187329681723E+08, -5.040538594455153E+06,
2460749.500000000, A.D. 2025-Mar-15 00:00:00.0000, -1.015445780587576E+08, -3.866833246316111E+08, -5.231166866017044E+06,
2460756.500000000, A.D. 2025-Mar-22 00:00:00.0000, -8.992771429156438E+07, -3.887543091898094E+08, -5.417822754364967E+06,
2460763.500000000, A.D. 2025-Mar-29 00:00:00.0000, -7.824215376490067E+07, -3.905283941390144E+08, -5.600340486359209E+06,
2460770.500000000, A.D. 2025-Apr-05 00:00:00.0000, -6.649649409565027E+07, -3.920025820710784E+08, -5.778556998769999E+06,
2460777.500000000, A.D. 2025-Apr-12 00:00:00.0000, -5.469949300323287E+07, -3.931741816905037E+08, -5.952312336763471E+06,
2460784.500000000, A.D. 2025-Apr-19 00:00:00.0000, -4.286005457806271E+07, -3.940408180544680E+08, -6.121450004518002E+06,
2460791.500000000, A.D. 2025-Apr-26 00:00:00.0000, -3.098721491158479E+07, -3.946004421671015E+08, -6.285817307945788E+06,
2460798.500000000, A.D. 2025-May-03 00:00:00.0000, -1.909012702296191E+07, -3.948513398394395E+08, -6.445265696803361E+06,
2460805.500000000, A.D. 2025-May-10 00:00:00.0000, -7.178045109488503E+06, -3.947921397402816E+08, -6.599651106464177E+06,
2460812.500000000, A.D. 2025-May-17 00:00:00.0000, 4.739691853443044E+06, -3.944218206168181E+08, -6.748834304277837E+06,
2460819.500000000, A.D. 2025-May-24 00:00:00.0000, 1.665367726803593E+07, -3.937397176812814E+08, -6.892681258995354E+06,
2460826.500000000, A.D. 2025-May-31 00:00:00.0000, 2.855445517012792E+07, -3.927455277995009E+08, -7.031063544327348E+06,
2460833.500000000, A.D. 2025-Jun-07 00:00:00.0000, 4.043253910799637E+07, -3.914393122311152E+08, -7.163858639797568E+06,
2460840.500000000, A.D. 2025-Jun-14 00:00:00.0000, 5.227842919837111E+07, -3.898214975517191E+08, -7.290949965111673E+06,
2460847.500000000, A.D. 2025-Jun-21 00:00:00.0000, 6.408262849078087E+07, -3.878928780006052E+08, -7.412227025667220E+06,
2460854.500000000, A.D. 2025-Jun-28 00:00:00.0000, 7.583566167832251E+07, -3.856546174712953E+08, -7.527585810447395E+06,
2460861.500000000, A.D. 2025-Jul-05 00:00:00.0000, 8.752809454414092E+07, -3.831082489775823E+08, -7.636929125259161E+06,
2460868.500000000, A.D. 2025-Jul-12 00:00:00.0000, 9.915055285744870E+07, -3.802556723950942E+08, -7.740166816234767E+06,
2460875.500000000, A.D. 2025-Jul-19 00:00:00.0000, 1.106937408145725E+08, -3.770991510553198E+08, -7.837215946522295E+06,
2460882.500000000, A.D. 2025-Jul-26 00:00:00.0000, 1.221484591425895E+08, -3.736413072595420E+08, -7.928000948830903E+06,
2460889.500000000, A.D. 2025-Aug-02 00:00:00.0000, 1.335056228404404E+08, -3.698851167111691E+08, -8.012453757133141E+06,
2460896.500000000, A.D. 2025-Aug-09 00:00:00.0000, 1.447562784930121E+08, -3.658339019100715E+08, -8.090513920237526E+06,
2460903.500000000, A.D. 2025-Aug-16 00:00:00.0000, 1.558916211508674E+08, -3.614913246100330E+08, -8.162128709025800E+06,
2460910.500000000, A.D. 2025-Aug-23 00:00:00.0000, 1.669030109879755E+08, -3.568613773698865E+08, -8.227253242434725E+06,
2460917.500000000, A.D. 2025-Aug-30 00:00:00.0000, 1.777819899898739E+08, -3.519483735393738E+08, -8.285850603585631E+06,
2460924.500000000, A.D. 2025-Sep-06 00:00:00.0000, 1.885202971817389E+08, -3.467569347401814E+08, -8.337891733968422E+06,
2460931.500000000, A.D. 2025-Sep-13 00:00:00.0000, 1.991098806586052E+08, -3.412919783888028E+08, -8.383355155374944E+06,
2460938.500000000, A.D. 2025-Sep-20 00:00:00.0000, 2.095429096319706E+08, -3.355587069729366E+08, -8.422226954506531E+06,
2460945.500000000, A.D. 2025-Sep-27 00:00:00.0000, 2.198117875011726E+08, -3.295625960434819E+08, -8.454500873475343E+06,
2460952.500000000, A.D. 2025-Oct-04 00:00:00.0000, 2.299091638898559E+08, -3.233093804614328E+08, -8.480178277672112E+06,
2460959.500000000, A.D. 2025-Oct-11 00:00:00.0000, 2.398279452379775E+08, -3.168050399233984E+08, -8.499268044527292E+06,
2460966.500000000, A.D. 2025-Oct-18 00:00:00.0000, 2.495613042048997E+08, -3.100557841223419E+08, -8.511786422565907E+06,
2460973.500000000, A.D. 2025-Oct-25 00:00:00.0000, 2.591026880028048E+08, -3.030680376157389E+08, -8.517756873810947E+06,
2460980.500000000, A.D. 2025-Nov-01 00:00:00.0000, 2.684458256869640E+08, -2.958484244690239E+08, -8.517209903234050E+06,
2460987.500000000, A.D. 2025-Nov-08 00:00:00.0000, 2.775847344315439E+08, -2.884037527878706E+08, -8.510182882553160E+06,
2460994.500000000, A.D. 2025-Nov-15 00:00:00.0000, 2.865137249405466E+08, -2.807409992776748E+08, -8.496719888453051E+06,
2461001.500000000, A.D. 2025-Nov-22 00:00:00.0000, 2.952274064069484E+08, -2.728672936882481E+08, -8.476871575876623E+06,
2461008.500000000, A.D. 2025-Nov-29 00:00:00.0000, 3.037206908848972E+08, -2.647899020864426E+08, -8.450694981144384E+06,
2461015.500000000, A.D. 2025-Dec-06 00:00:00.0000, 3.119887948201259E+08, -2.565162091683491E+08, -8.418253058743358E+06,
2461022.500000000, A.D. 2025-Dec-13 00:00:00.0000, 3.200272381980039E+08, -2.480537030507718E+08, -8.379614268808171E+06,
2461029.500000000, A.D. 2025-Dec-20 00:00:00.0000, 3.278318448341922E+08, -2.394099615819413E+08, -8.334852453872532E+06,
2461036.500000000, A.D. 2025-Dec-27 00:00:00.0000, 3.353987427727147E+08, -2.305926376401704E+08, -8.284046696212411E+06,
2461043.500000000, A.D. 2026-Jan-03 00:00:00.0000, 3.427243633749407E+08, -2.216094440923425E+08, -8.227281073692381E+06,
2461050.500000000, A.D. 2026-Jan-10 00:00:00.0000, 3.498054392548151E+08, -2.124681391422572E+08, -8.164644381036684E+06,
2461057.500000000, A.D. 2026-Jan-17 00:00:00.0000, 3.566390013410702E+08, -2.031765122062619E+08, -8.096229846618608E+06,
2461064.500000000, A.D. 2026-Jan-24 00:00:00.0000, 3.632223751943455E+08, -1.937423703343946E+08, -8.022134851244748E+06,
2461071.500000000, A.D. 2026-Jan-31 00:00:00.0000, 3.695531766531930E+08, -1.841735252203219E+08, -7.942460652814679E+06,
2461078.500000000, A.D. 2026-Feb-07 00:00:00.0000, 3.756293069201252E+08, -1.744777808875072E+08, -7.857312128330790E+06,
2461085.500000000, A.D. 2026-Feb-14 00:00:00.0000, 3.814489473893983E+08, -1.646629220896505E+08, -7.766797558931336E+06,
2461092.500000000, A.D. 2026-Feb-21 00:00:00.0000, 3.870105546546861E+08, -1.547367028635927E+08, -7.671028447410181E+06,
2461099.500000000, A.D. 2026-Feb-28 00:00:00.0000, 3.923128546673716E+08, -1.447068340929379E+08, -7.570119175205424E+06,
2461106.500000000, A.D. 2026-Mar-07 00:00:00.0000, 3.973548340435616E+08, -1.345809720439256E+08, -7.464186470083445E+06,
2461113.500000000, A.D. 2026-Mar-14 00:00:00.0000, 4.021357313477224E+08, -1.243667102144598E+08, -7.353349130516954E+06,
2461120.500000000, A.D. 2026-Mar-21 00:00:00.0000, 4.066550301855284E+08, -1.140715716013497E+08, -7.237727934032105E+06,
2461127.500000000, A.D. 2026-Mar-28 00:00:00.0000, 4.109124521451817E+08, -1.037030003569856E+08, -7.117445461524747E+06,
2461134.500000000, A.D. 2026-Apr-04 00:00:00.0000, 4.149079490294033E+08, -9.326835379767263E+07, -6.992625861396346E+06,
2461141.500000000, A.D. 2026-Apr-11 00:00:00.0000, 4.186416946950600E+08, -8.277489511630820E+07, -6.863394608309347E+06,
2461148.500000000, A.D. 2026-Apr-18 00:00:00.0000, 4.221140767005599E+08, -7.222978679545493E+07, -6.729878271900568E+06,
2461155.500000000, A.D. 2026-Apr-25 00:00:00.0000, 4.253256878457860E+08, -6.164008469279468E+07, -6.592204298551258E+06,
2461162.500000000, A.D. 2026-May-02 00:00:00.0000, 4.282773176722033E+08, -5.101273281326525E+07, -6.450500811485913E+06,
2461169.500000000, A.D. 2026-May-09 00:00:00.0000, 4.309699440820924E+08, -4.035455881735341E+07, -6.304896446077783E+06,
2461176.500000000, A.D. 2026-May-16 00:00:00.0000, 4.334047254855058E+08, -2.967227010884108E+07, -6.155520243807057E+06,
2461183.500000000, A.D. 2026-May-23 00:00:00.0000, 4.355829935544645E+08, -1.897244945845362E+07, -6.002501526047087E+06,
2461190.500000000, A.D. 2026-May-30 00:00:00.0000, 4.375062445343636E+08, -8.261549821275097E+06, -5.845969530672636E+06,
2461197.500000000, A.D. 2026-Jun-06 00:00:00.0000, 4.391761288222597E+08, 2.454108398995825E+06, -5.686053049871750E+06,
2461204.500000000, A.D. 2026-Jun-13 00:00:00.0000, 4.405944424983627E+08, 1.316833785875930E+07, -5.522880389397373E+06,
2461211.500000000, A.D. 2026-Jun-20 00:00:00.0000, 4.417631203271168E+08, 2.387508550570510E+07, -5.356579364305131E+06,
2461218.500000000, A.D. 2026-Jun-27 00:00:00.0000, 4.426842285466208E+08, 3.456843421627092E+07, -5.187277203202596E+06,
2461225.500000000, A.D. 2026-Jul-04 00:00:00.0000, 4.433599574615967E+08, 4.524260408761676E+07, -5.015100424369713E+06,
2461232.500000000, A.D. 2026-Jul-11 00:00:00.0000, 4.437926141068488E+08, 5.589195327512701E+07, -4.840174717860533E+06,
2461239.500000000, A.D. 2026-Jul-18 00:00:00.0000, 4.439846150848733E+08, 6.651097842392240E+07, -4.662624839998066E+06,
2461246.500000000, A.D. 2026-Jul-25 00:00:00.0000, 4.439384796112629E+08, 7.709431471957123E+07, -4.482574522237197E+06,
2461253.500000000, A.D. 2026-Aug-01 00:00:00.0000, 4.436568228237033E+08, 8.763673553187484E+07, -4.300146402646832E+06,
2461260.500000000, A.D. 2026-Aug-08 00:00:00.0000, 4.431423495756185E+08, 9.813315163693565E+07, -4.115462002545767E+06,
2461267.500000000, A.D. 2026-Aug-15 00:00:00.0000, 4.423978491331278E+08, 1.085786104878928E+08, -3.928641749475069E+06,
2461274.500000000, A.D. 2026-Aug-22 00:00:00.0000, 4.414261900152460E+08, 1.189682967761420E+08, -3.739804876650013E+06,
2461281.500000000, A.D. 2026-Aug-29 00:00:00.0000, 4.402303126908669E+08, 1.292975329318099E+08, -3.549069100595221E+06,
$$EOE